QIANFAN-41              
1 62242U 24232F   25236.55384491  .00000038  00000+0  39979-4 0  9997
2 62242  88.9937  52.3212 0015123 143.6466 216.5716 13.50961242 84372
QIANFAN-42              
1 62243U 24232G   25236.55103609  .00000132  00000+0  50867-4 0  9992
2 62243  88.9937  49.9455 0017299  85.9439 274.3731 14.24339718 85681
QIANFAN-43              
1 62244U 24232H   25236.54973154  .00000048  00000+0  55120-4 0  9995
2 62244  88.9941  52.3820 0016483 149.1146 211.0979 13.50965149 52983
QIANFAN-44              
1 62245U 24232J   25236.53737665  .00000037  00000+0  38079-4 0  9992
2 62245  88.9940  52.1957 0014790 145.6734 214.5376 13.50963961 84451
QIANFAN-45              
1 62246U 24232K   25236.57855803  .00000040  00000+0  43302-4 0  9991
2 62246  88.9944  52.3342 0015418 145.4154 214.8004 13.50967403 84386
QIANFAN-46              
1 62247U 24232L   25236.52915387  .00000034  00000+0  33603-4 0  9997
2 62247  88.9939  52.4128 0015352 150.7785 209.4228 13.50961693 84338
QIANFAN-47              
1 62248U 24232M   25236.53319969  .00000037  00000+0  38155-4 0  9993
2 62248  88.9935  52.3498 0015798 150.1400 210.0655 13.50961521 84361
QIANFAN-48              
1 62249U 24232N   25236.57029149  .00000039  00000+0  41797-4 0  9994
2 62249  88.9939  52.3435 0017974 153.3588 206.8491 13.50964679 84376
